{"type": "FeatureCollection", "features": [{"type": "Feature", "properties": {"norad_id": 50032, "name": "COSMOS 1408 DEB", "group": "cosmos-1408-debris", "lat": -27.677158087530767, "lon": 46.51461736735477, "alt_km": 444.71949438786487, "timestamp": "2025-12-20T14:38:02.240409+00:00", "meta": {"OBJECT_NAME": "COSMOS 1408 DEB", "OBJECT_ID": "1982-092RU", "EPOCH": "2025-12-20T05:25:58.948608", "MEAN_MOTION": 15.45764789, "ECCENTRICITY": 0.00159806, "INCLINATION": 82.5638, "RA_OF_ASC_NODE": 50.8358, "ARG_OF_PERICENTER": 180.5492, "MEAN_ANOMALY": 179.5742, "EPHEMERIS_TYPE": 0, "CLASSIFICATION_TYPE": "U", "NORAD_CAT_ID": 50032, "ELEMENT_SET_NO": 999, "REV_AT_EPOCH": 22719, "BSTAR": 8.0316152e-05, "MEAN_MOTION_DOT": 3.945e-05, "MEAN_MOTION_DDOT": 0}, "tle": {"line1": "1 50032U 82092RU  25354.22637672  .00003945  00000+0  80316-4 0  9997", "line2": "2 50032  82.5638  50.8358 0015980 180.5492 179.5742 15.45764789227197"}}, "geometry": {"type": "Point", "coordinates": [46.51461736735477, -27.677158087530767]}}, {"type": "Feature", "properties": {"norad_id": 50058, "name": "COSMOS 1408 DEB", "group": "cosmos-1408-debris", "lat": -19.93479119894044, "lon": 58.40572710044701, "alt_km": 380.1558725122177, "timestamp": "2025-12-20T14:38:02.240431+00:00", "meta": {"OBJECT_NAME": "COSMOS 1408 DEB", "OBJECT_ID": "1982-092SW", "EPOCH": "2025-12-20T05:30:34.525728", "MEAN_MOTION": 15.64533441, "ECCENTRICITY": 0.00161733, "INCLINATION": 82.6128, "RA_OF_ASC_NODE": 61.501, "ARG_OF_PERICENTER": 73.1151, "MEAN_ANOMALY": 287.188, "EPHEMERIS_TYPE": 0, "CLASSIFICATION_TYPE": "U", "NORAD_CAT_ID": 50058, "ELEMENT_SET_NO": 999, "REV_AT_EPOCH": 22921, "BSTAR": 0.00023868898, "MEAN_MOTION_DOT": 0.00023195, "MEAN_MOTION_DDOT": 0}, "tle": {"line1": "1 50058U 82092SW  25354.22956627  .00023195  00000+0  23869-3 0  9997", "line2": "2 50058  82.6128  61.5010 0016173  73.1151 287.1880 15.64533441229212"}}, "geometry": {"type": "Point", "coordinates": [58.40572710044701, -19.93479119894044]}}, {"type": "Feature", "properties": {"norad_id": 50404, "name": "COSMOS 1408 DEB", "group": "cosmos-1408-debris", "lat": 62.56950274671704, "lon": 11.666716153039806, "alt_km": 447.94287408590844, "timestamp": "2025-12-20T14:38:02.240445+00:00", "meta": {"OBJECT_NAME": "COSMOS 1408 DEB", "OBJECT_ID": "1982-092ADS", "EPOCH": "2025-12-19T14:20:11.624064", "MEAN_MOTION": 15.1481285, "ECCENTRICITY": 0.0169261, "INCLINATION": 82.2053, "RA_OF_ASC_NODE": 208.0078, "ARG_OF_PERICENTER": 175.439, "MEAN_ANOMALY": 184.8437, "EPHEMERIS_TYPE": 0, "CLASSIFICATION_TYPE": "U", "NORAD_CAT_ID": 50404, "ELEMENT_SET_NO": 999, "REV_AT_EPOCH": 21297, "BSTAR": 0.0021779, "MEAN_MOTION_DOT": 0.0005852, "MEAN_MOTION_DDOT": 0}, "tle": {"line1": "1 50404U 82092ADS 25353.59735676  .00058520  00000+0  21779-2 0  9997", "line2": "2 50404  82.2053 208.0078 0169261 175.4390 184.8437 15.14812850212975"}}, "geometry": {"type": "Point", "coordinates": [11.666716153039806, 62.56950274671704]}}, {"type": "Feature", "properties": {"norad_id": 50621, "name": "COSMOS 1408 DEB", "group": "cosmos-1408-debris", "lat": 34.34273126328826, "lon": -119.1294771108532, "alt_km": 375.74854040116406, "timestamp": "2025-12-20T14:38:02.240456+00:00", "meta": {"OBJECT_NAME": "COSMOS 1408 DEB", "OBJECT_ID": "1982-092ALR", "EPOCH": "2025-12-19T22:35:23.224128", "MEAN_MOTION": 15.57015265, "ECCENTRICITY": 0.0029104, "INCLINATION": 82.57, "RA_OF_ASC_NODE": 66.6825, "ARG_OF_PERICENTER": 126.3285, "MEAN_ANOMALY": 234.0664, "EPHEMERIS_TYPE": 0, "CLASSIFICATION_TYPE": "U", "NORAD_CAT_ID": 50621, "ELEMENT_SET_NO": 999, "REV_AT_EPOCH": 22362, "BSTAR": 0.00024847, "MEAN_MOTION_DOT": 0.00018347, "MEAN_MOTION_DDOT": 0}, "tle": {"line1": "1 50621U 82092ALR 25353.94124102  .00018347  00000+0  24847-3 0  9996", "line2": "2 50621  82.5700  66.6825 0029104 126.3285 234.0664 15.57015265223621"}}, "geometry": {"type": "Point", "coordinates": [-119.1294771108532, 34.34273126328826]}}]}